[{"OBJECT_NAME":"ZACUBE-1 (TSHEPISOSAT)","OBJECT_ID":"2013-066B","EPOCH":"2026-04-25T21:01:04.059552","MEAN_MOTION":15.007441,"ECCENTRICITY":0.00442227,"INCLINATION":97.8121,"RA_OF_ASC_NODE":77.9322,"ARG_OF_PERICENTER":67.9289,"MEAN_ANOMALY":292.6622,"EPHEMERIS_TYPE":0,"CLASSIFICATION_TYPE":"U","NORAD_CAT_ID":39417,"ELEMENT_SET_NO":999,"REV_AT_EPOCH":67288,"BSTAR":0.00045820185,"MEAN_MOTION_DOT":5.869e-5,"MEAN_MOTION_DDOT":0},{"OBJECT_NAME":"WNISAT-1","OBJECT_ID":"2013-066H","EPOCH":"2026-04-25T20:22:51.509856","MEAN_MOTION":14.57998402,"ECCENTRICITY":0.01640082,"INCLINATION":97.7133,"RA_OF_ASC_NODE":268.7418,"ARG_OF_PERICENTER":37.2017,"MEAN_ANOMALY":324.0414,"EPHEMERIS_TYPE":0,"CLASSIFICATION_TYPE":"U","NORAD_CAT_ID":39423,"ELEMENT_SET_NO":999,"REV_AT_EPOCH":65910,"BSTAR":0.00013121515,"MEAN_MOTION_DOT":6.77e-6,"MEAN_MOTION_DDOT":0},{"OBJECT_NAME":"TRITON-1","OBJECT_ID":"2013-066M","EPOCH":"2026-04-25T22:55:27.202080","MEAN_MOTION":14.81445215,"ECCENTRICITY":0.0091543,"INCLINATION":97.8269,"RA_OF_ASC_NODE":26.954,"ARG_OF_PERICENTER":45.2652,"MEAN_ANOMALY":315.5966,"EPHEMERIS_TYPE":0,"CLASSIFICATION_TYPE":"U","NORAD_CAT_ID":39427,"ELEMENT_SET_NO":999,"REV_AT_EPOCH":66635,"BSTAR":0.00044458863,"MEAN_MOTION_DOT":3.686e-5,"MEAN_MOTION_DDOT":0},{"OBJECT_NAME":"GOMX-1","OBJECT_ID":"2013-066Q","EPOCH":"2026-04-25T19:37:30.734976","MEAN_MOTION":14.69258291,"ECCENTRICITY":0.01275501,"INCLINATION":97.6529,"RA_OF_ASC_NODE":319.578,"ARG_OF_PERICENTER":245.5389,"MEAN_ANOMALY":113.247,"EPHEMERIS_TYPE":0,"CLASSIFICATION_TYPE":"U","NORAD_CAT_ID":39430,"ELEMENT_SET_NO":999,"REV_AT_EPOCH":66222,"BSTAR":0.00021358335,"MEAN_MOTION_DOT":1.373e-5,"MEAN_MOTION_DDOT":0},{"OBJECT_NAME":"CUBEBUG-2 (LO-74)","OBJECT_ID":"2013-066AA","EPOCH":"2026-04-25T19:21:22.290336","MEAN_MOTION":14.93386841,"ECCENTRICITY":0.00573282,"INCLINATION":97.8871,"RA_OF_ASC_NODE":64.5922,"ARG_OF_PERICENTER":199.505,"MEAN_ANOMALY":160.3976,"EPHEMERIS_TYPE":0,"CLASSIFICATION_TYPE":"U","NORAD_CAT_ID":39440,"ELEMENT_SET_NO":999,"REV_AT_EPOCH":66917,"BSTAR":0.00035042984,"MEAN_MOTION_DOT":3.736e-5,"MEAN_MOTION_DDOT":0},{"OBJECT_NAME":"NEE-02 KRYSAOR","OBJECT_ID":"2013-066AB","EPOCH":"2026-04-25T18:32:12.677280","MEAN_MOTION":14.86426759,"ECCENTRICITY":0.00648923,"INCLINATION":97.8866,"RA_OF_ASC_NODE":55.3782,"ARG_OF_PERICENTER":241.0668,"MEAN_ANOMALY":118.403,"EPHEMERIS_TYPE":0,"CLASSIFICATION_TYPE":"U","NORAD_CAT_ID":39441,"ELEMENT_SET_NO":999,"REV_AT_EPOCH":66841,"BSTAR":0.00017450045,"MEAN_MOTION_DOT":1.541e-5,"MEAN_MOTION_DDOT":0},{"OBJECT_NAME":"FUNCUBE-1 (AO-73)","OBJECT_ID":"2013-066AE","EPOCH":"2026-04-25T20:59:40.120224","MEAN_MOTION":15.08734881,"ECCENTRICITY":0.00375657,"INCLINATION":97.8238,"RA_OF_ASC_NODE":86.2682,"ARG_OF_PERICENTER":24.4509,"MEAN_ANOMALY":335.849,"EPHEMERIS_TYPE":0,"CLASSIFICATION_TYPE":"U","NORAD_CAT_ID":39444,"ELEMENT_SET_NO":999,"REV_AT_EPOCH":67177,"BSTAR":0.00070497685,"MEAN_MOTION_DOT":0.00011188,"MEAN_MOTION_DDOT":0},{"OBJECT_NAME":"UWE-3","OBJECT_ID":"2013-066AG","EPOCH":"2026-04-25T20:55:18.169248","MEAN_MOTION":14.96585865,"ECCENTRICITY":0.0050448,"INCLINATION":97.8653,"RA_OF_ASC_NODE":71.6258,"ARG_OF_PERICENTER":133.0034,"MEAN_ANOMALY":227.5431,"EPHEMERIS_TYPE":0,"CLASSIFICATION_TYPE":"U","NORAD_CAT_ID":39446,"ELEMENT_SET_NO":999,"REV_AT_EPOCH":66975,"BSTAR":0.00036881974,"MEAN_MOTION_DOT":4.247e-5,"MEAN_MOTION_DDOT":0},{"OBJECT_NAME":"BRITE-CA1 (TORONTO)","OBJECT_ID":"2014-033L","EPOCH":"2026-04-25T22:09:30.817440","MEAN_MOTION":14.72596954,"ECCENTRICITY":0.00800581,"INCLINATION":97.9657,"RA_OF_ASC_NODE":245.8412,"ARG_OF_PERICENTER":84.4504,"MEAN_ANOMALY":276.5828,"EPHEMERIS_TYPE":0,"CLASSIFICATION_TYPE":"U","NORAD_CAT_ID":40020,"ELEMENT_SET_NO":999,"REV_AT_EPOCH":63452,"BSTAR":0.00016376078,"MEAN_MOTION_DOT":1.043e-5,"MEAN_MOTION_DDOT":0},{"OBJECT_NAME":"DUCHIFAT-1","OBJECT_ID":"2014-033M","EPOCH":"2026-04-25T16:10:40.045440","MEAN_MOTION":15.55855059,"ECCENTRICITY":0.00040494,"INCLINATION":98.0542,"RA_OF_ASC_NODE":167.8552,"ARG_OF_PERICENTER":235.8806,"MEAN_ANOMALY":124.2063,"EPHEMERIS_TYPE":0,"CLASSIFICATION_TYPE":"U","NORAD_CAT_ID":40021,"ELEMENT_SET_NO":999,"REV_AT_EPOCH":64756,"BSTAR":0.00094542862,"MEAN_MOTION_DOT":0.00065753,"MEAN_MOTION_DDOT":0},{"OBJECT_NAME":"NANOSATC-BR1","OBJECT_ID":"2014-033Q","EPOCH":"2026-04-25T13:52:24.888576","MEAN_MOTION":15.29765088,"ECCENTRICITY":0.00038058,"INCLINATION":98.0779,"RA_OF_ASC_NODE":143.3656,"ARG_OF_PERICENTER":37.3997,"MEAN_ANOMALY":322.7506,"EPHEMERIS_TYPE":0,"CLASSIFICATION_TYPE":"U","NORAD_CAT_ID":40024,"ELEMENT_SET_NO":999,"REV_AT_EPOCH":64593,"BSTAR":0.00056374511,"MEAN_MOTION_DOT":0.00016189,"MEAN_MOTION_DDOT":0},{"OBJECT_NAME":"QB50P1","OBJECT_ID":"2014-033R","EPOCH":"2026-04-25T22:30:31.563648","MEAN_MOTION":15.1741676,"ECCENTRICITY":0.00102235,"INCLINATION":98.0995,"RA_OF_ASC_NODE":123.4516,"ARG_OF_PERICENTER":53.1884,"MEAN_ANOMALY":307.0285,"EPHEMERIS_TYPE":0,"CLASSIFICATION_TYPE":"U","NORAD_CAT_ID":40025,"ELEMENT_SET_NO":999,"REV_AT_EPOCH":64510,"BSTAR":0.00051741009,"MEAN_MOTION_DOT":0.0001029,"MEAN_MOTION_DDOT":0},{"OBJECT_NAME":"QB50P2","OBJECT_ID":"2014-033Y","EPOCH":"2026-04-25T21:58:29.929152","MEAN_MOTION":15.14463809,"ECCENTRICITY":0.00075045,"INCLINATION":98.0756,"RA_OF_ASC_NODE":109.574,"ARG_OF_PERICENTER":8.3224,"MEAN_ANOMALY":351.8129,"EPHEMERIS_TYPE":0,"CLASSIFICATION_TYPE":"U","NORAD_CAT_ID":40032,"ELEMENT_SET_NO":999,"REV_AT_EPOCH":64475,"BSTAR":0.00050102433,"MEAN_MOTION_DOT":9.152e-5,"MEAN_MOTION_DDOT":0},{"OBJECT_NAME":"PERSEUS-M2","OBJECT_ID":"2014-033AD","EPOCH":"2026-04-25T22:32:01.749696","MEAN_MOTION":14.95340543,"ECCENTRICITY":0.00133464,"INCLINATION":97.9923,"RA_OF_ASC_NODE":65.435,"ARG_OF_PERICENTER":109.9515,"MEAN_ANOMALY":250.3144,"EPHEMERIS_TYPE":0,"CLASSIFICATION_TYPE":"U","NORAD_CAT_ID":40037,"ELEMENT_SET_NO":999,"REV_AT_EPOCH":64297,"BSTAR":0.00017647078,"MEAN_MOTION_DOT":1.888e-5,"MEAN_MOTION_DDOT":0},{"OBJECT_NAME":"PERSEUS-M1","OBJECT_ID":"2014-033AF","EPOCH":"2026-04-25T18:46:10.495488","MEAN_MOTION":14.95448126,"ECCENTRICITY":0.00130967,"INCLINATION":97.961,"RA_OF_ASC_NODE":59.0727,"ARG_OF_PERICENTER":109.0977,"MEAN_ANOMALY":251.1662,"EPHEMERIS_TYPE":0,"CLASSIFICATION_TYPE":"U","NORAD_CAT_ID":40039,"ELEMENT_SET_NO":999,"REV_AT_EPOCH":64280,"BSTAR":0.00017943727,"MEAN_MOTION_DOT":1.927e-5,"MEAN_MOTION_DDOT":0},{"OBJECT_NAME":"POLYITAN-1","OBJECT_ID":"2014-033AJ","EPOCH":"2026-04-25T14:45:07.173504","MEAN_MOTION":15.3142424,"ECCENTRICITY":0.00062324,"INCLINATION":98.0997,"RA_OF_ASC_NODE":136.9721,"ARG_OF_PERICENTER":346.1051,"MEAN_ANOMALY":14.0016,"EPHEMERIS_TYPE":0,"CLASSIFICATION_TYPE":"U","NORAD_CAT_ID":40042,"ELEMENT_SET_NO":999,"REV_AT_EPOCH":64554,"BSTAR":0.00058983133,"MEAN_MOTION_DOT":0.00017845,"MEAN_MOTION_DDOT":0}]
